LEMUR-2-AMANDA-SVANTE   
1 48269U 21034B   26068.77637527  .00030872  00000+0  11134-2 0  9996
2 48269  97.5829 144.8625 0002703 205.4721 154.6385 15.28469003265849
STARLINK-32905          
1 62923U 25027S   26068.45253007  .00018523  00000+0  68128-3 0  9992
2 62923  43.0020 130.4146 0001796 279.7302  80.3347 15.27563415 61501
